<?xml version="1.0" encoding="UTF-8"?>
<gpx version="1.1" creator="Spirited" xmlns="http://www.topografix.com/GPX/1/1">
  <metadata><name>Spirited route</name></metadata>
  <trk>
    <name>Spirited route</name>
    <trkseg>
      <trkpt lat="51.455967" lon="-0.969435"/>
      <trkpt lat="51.455865" lon="-0.969415"/>
      <trkpt lat="51.455671" lon="-0.969375"/>
      <trkpt lat="51.455572" lon="-0.969349"/>
      <trkpt lat="51.455385" lon="-0.969282"/>
      <trkpt lat="51.455274" lon="-0.969234"/>
      <trkpt lat="51.455098" lon="-0.969141"/>
      <trkpt lat="51.455050" lon="-0.969115"/>
      <trkpt lat="51.455027" lon="-0.969104"/>
      <trkpt lat="51.454984" lon="-0.969082"/>
      <trkpt lat="51.454988" lon="-0.969294"/>
      <trkpt lat="51.454992" lon="-0.969424"/>
      <trkpt lat="51.455004" lon="-0.969611"/>
      <trkpt lat="51.455033" lon="-0.969799"/>
      <trkpt lat="51.455063" lon="-0.969956"/>
      <trkpt lat="51.455072" lon="-0.969989"/>
      <trkpt lat="51.455085" lon="-0.970036"/>
      <trkpt lat="51.455109" lon="-0.970122"/>
      <trkpt lat="51.455122" lon="-0.970170"/>
      <trkpt lat="51.455125" lon="-0.970222"/>
      <trkpt lat="51.455119" lon="-0.970267"/>
      <trkpt lat="51.455101" lon="-0.970309"/>
      <trkpt lat="51.455068" lon="-0.970344"/>
      <trkpt lat="51.454867" lon="-0.970484"/>
      <trkpt lat="51.454825" lon="-0.970551"/>
      <trkpt lat="51.454805" lon="-0.970613"/>
      <trkpt lat="51.454794" lon="-0.970686"/>
      <trkpt lat="51.454752" lon="-0.970969"/>
      <trkpt lat="51.454697" lon="-0.971336"/>
      <trkpt lat="51.454686" lon="-0.971411"/>
      <trkpt lat="51.454624" lon="-0.972010"/>
      <trkpt lat="51.454614" lon="-0.972113"/>
      <trkpt lat="51.454596" lon="-0.972211"/>
      <trkpt lat="51.454568" lon="-0.972325"/>
      <trkpt lat="51.454532" lon="-0.972435"/>
      <trkpt lat="51.454506" lon="-0.972523"/>
      <trkpt lat="51.454480" lon="-0.972583"/>
      <trkpt lat="51.454441" lon="-0.972627"/>
      <trkpt lat="51.454374" lon="-0.972671"/>
      <trkpt lat="51.454277" lon="-0.972722"/>
      <trkpt lat="51.454225" lon="-0.972749"/>
      <trkpt lat="51.454133" lon="-0.972837"/>
      <trkpt lat="51.454093" lon="-0.972902"/>
      <trkpt lat="51.453973" lon="-0.973214"/>
      <trkpt lat="51.453878" lon="-0.973531"/>
      <trkpt lat="51.453859" lon="-0.973595"/>
      <trkpt lat="51.453841" lon="-0.973671"/>
      <trkpt lat="51.453783" lon="-0.973881"/>
      <trkpt lat="51.453733" lon="-0.974010"/>
      <trkpt lat="51.453715" lon="-0.974058"/>
      <trkpt lat="51.453534" lon="-0.974658"/>
      <trkpt lat="51.453410" lon="-0.975053"/>
      <trkpt lat="51.453353" lon="-0.975113"/>
      <trkpt lat="51.453178" lon="-0.975379"/>
      <trkpt lat="51.452918" lon="-0.975758"/>
      <trkpt lat="51.452903" lon="-0.975793"/>
      <trkpt lat="51.452826" lon="-0.975956"/>
      <trkpt lat="51.452635" lon="-0.976479"/>
      <trkpt lat="51.452595" lon="-0.976625"/>
      <trkpt lat="51.452554" lon="-0.976769"/>
      <trkpt lat="51.452528" lon="-0.976858"/>
      <trkpt lat="51.452476" lon="-0.976920"/>
      <trkpt lat="51.452449" lon="-0.976957"/>
      <trkpt lat="51.452393" lon="-0.977008"/>
      <trkpt lat="51.452307" lon="-0.977107"/>
      <trkpt lat="51.452271" lon="-0.977134"/>
      <trkpt lat="51.452201" lon="-0.977220"/>
      <trkpt lat="51.452141" lon="-0.977301"/>
      <trkpt lat="51.452098" lon="-0.977377"/>
      <trkpt lat="51.452077" lon="-0.977431"/>
      <trkpt lat="51.452065" lon="-0.977472"/>
      <trkpt lat="51.452057" lon="-0.977509"/>
      <trkpt lat="51.452053" lon="-0.977530"/>
      <trkpt lat="51.452042" lon="-0.977637"/>
      <trkpt lat="51.452038" lon="-0.977747"/>
      <trkpt lat="51.452042" lon="-0.977787"/>
      <trkpt lat="51.452040" lon="-0.977959"/>
      <trkpt lat="51.452035" lon="-0.978053"/>
      <trkpt lat="51.452028" lon="-0.978115"/>
      <trkpt lat="51.451988" lon="-0.978295"/>
      <trkpt lat="51.451960" lon="-0.978358"/>
      <trkpt lat="51.451862" lon="-0.978560"/>
      <trkpt lat="51.451812" lon="-0.978720"/>
      <trkpt lat="51.451807" lon="-0.978748"/>
      <trkpt lat="51.451768" lon="-0.978945"/>
      <trkpt lat="51.451695" lon="-0.979367"/>
      <trkpt lat="51.451624" lon="-0.979768"/>
      <trkpt lat="51.451601" lon="-0.979949"/>
      <trkpt lat="51.451559" lon="-0.980290"/>
      <trkpt lat="51.451542" lon="-0.980428"/>
      <trkpt lat="51.451524" lon="-0.980550"/>
      <trkpt lat="51.451508" lon="-0.980643"/>
      <trkpt lat="51.451495" lon="-0.980728"/>
      <trkpt lat="51.451478" lon="-0.980815"/>
      <trkpt lat="51.451434" lon="-0.981037"/>
      <trkpt lat="51.451413" lon="-0.981143"/>
      <trkpt lat="51.451343" lon="-0.981495"/>
      <trkpt lat="51.451238" lon="-0.981715"/>
      <trkpt lat="51.451161" lon="-0.981948"/>
      <trkpt lat="51.451141" lon="-0.982025"/>
      <trkpt lat="51.451082" lon="-0.982284"/>
      <trkpt lat="51.451032" lon="-0.982479"/>
      <trkpt lat="51.450978" lon="-0.982668"/>
      <trkpt lat="51.450957" lon="-0.982749"/>
      <trkpt lat="51.450913" lon="-0.982920"/>
      <trkpt lat="51.450887" lon="-0.983152"/>
      <trkpt lat="51.450863" lon="-0.983237"/>
      <trkpt lat="51.450725" lon="-0.983727"/>
      <trkpt lat="51.450661" lon="-0.983963"/>
      <trkpt lat="51.450572" lon="-0.984291"/>
      <trkpt lat="51.450546" lon="-0.984390"/>
      <trkpt lat="51.450439" lon="-0.984771"/>
      <trkpt lat="51.450378" lon="-0.984992"/>
      <trkpt lat="51.450249" lon="-0.985468"/>
      <trkpt lat="51.450216" lon="-0.985592"/>
      <trkpt lat="51.450132" lon="-0.985908"/>
      <trkpt lat="51.450106" lon="-0.986005"/>
      <trkpt lat="51.450092" lon="-0.986057"/>
      <trkpt lat="51.450013" lon="-0.986361"/>
      <trkpt lat="51.449963" lon="-0.986554"/>
      <trkpt lat="51.449875" lon="-0.986900"/>
      <trkpt lat="51.449854" lon="-0.986984"/>
      <trkpt lat="51.449822" lon="-0.987117"/>
      <trkpt lat="51.449780" lon="-0.987288"/>
      <trkpt lat="51.449746" lon="-0.987429"/>
      <trkpt lat="51.449705" lon="-0.987612"/>
      <trkpt lat="51.449641" lon="-0.987902"/>
      <trkpt lat="51.449556" lon="-0.988298"/>
      <trkpt lat="51.449502" lon="-0.988547"/>
      <trkpt lat="51.449440" lon="-0.988854"/>
      <trkpt lat="51.449419" lon="-0.988957"/>
      <trkpt lat="51.449374" lon="-0.989193"/>
      <trkpt lat="51.449321" lon="-0.989472"/>
      <trkpt lat="51.449302" lon="-0.989585"/>
      <trkpt lat="51.449297" lon="-0.989608"/>
      <trkpt lat="51.449244" lon="-0.989917"/>
      <trkpt lat="51.449240" lon="-0.989941"/>
      <trkpt lat="51.449158" lon="-0.990457"/>
      <trkpt lat="51.449137" lon="-0.990595"/>
      <trkpt lat="51.449095" lon="-0.990890"/>
      <trkpt lat="51.449057" lon="-0.991163"/>
      <trkpt lat="51.449006" lon="-0.991584"/>
      <trkpt lat="51.448990" lon="-0.991711"/>
      <trkpt lat="51.448965" lon="-0.991905"/>
      <trkpt lat="51.448939" lon="-0.992063"/>
      <trkpt lat="51.448900" lon="-0.992292"/>
      <trkpt lat="51.448872" lon="-0.992412"/>
      <trkpt lat="51.448779" lon="-0.992554"/>
      <trkpt lat="51.448725" lon="-0.992757"/>
      <trkpt lat="51.448708" lon="-0.992836"/>
      <trkpt lat="51.448657" lon="-0.993083"/>
      <trkpt lat="51.448670" lon="-0.993235"/>
      <trkpt lat="51.448541" lon="-0.993829"/>
      <trkpt lat="51.448411" lon="-0.994423"/>
      <trkpt lat="51.448355" lon="-0.994574"/>
      <trkpt lat="51.448339" lon="-0.994632"/>
      <trkpt lat="51.448290" lon="-0.994828"/>
      <trkpt lat="51.448239" lon="-0.995020"/>
      <trkpt lat="51.448206" lon="-0.995113"/>
      <trkpt lat="51.448156" lon="-0.995208"/>
      <trkpt lat="51.448119" lon="-0.995274"/>
      <trkpt lat="51.448065" lon="-0.995361"/>
      <trkpt lat="51.448051" lon="-0.995367"/>
      <trkpt lat="51.448030" lon="-0.995385"/>
      <trkpt lat="51.448018" lon="-0.995408"/>
      <trkpt lat="51.448014" lon="-0.995416"/>
      <trkpt lat="51.448007" lon="-0.995454"/>
      <trkpt lat="51.448009" lon="-0.995488"/>
      <trkpt lat="51.448017" lon="-0.995512"/>
      <trkpt lat="51.448021" lon="-0.995524"/>
      <trkpt lat="51.448037" lon="-0.995547"/>
      <trkpt lat="51.448057" lon="-0.995559"/>
      <trkpt lat="51.448051" lon="-0.995660"/>
      <trkpt lat="51.448049" lon="-0.995756"/>
      <trkpt lat="51.448031" lon="-0.995908"/>
      <trkpt lat="51.448028" lon="-0.996027"/>
      <trkpt lat="51.447969" lon="-0.996289"/>
      <trkpt lat="51.447939" lon="-0.996420"/>
      <trkpt lat="51.447897" lon="-0.996601"/>
      <trkpt lat="51.447787" lon="-0.997081"/>
      <trkpt lat="51.447604" lon="-0.997840"/>
      <trkpt lat="51.447443" lon="-0.998503"/>
      <trkpt lat="51.447385" lon="-0.998757"/>
      <trkpt lat="51.447321" lon="-0.999045"/>
      <trkpt lat="51.447239" lon="-0.999440"/>
      <trkpt lat="51.447211" lon="-0.999576"/>
      <trkpt lat="51.447143" lon="-0.999970"/>
      <trkpt lat="51.447064" lon="-1.000462"/>
      <trkpt lat="51.447056" lon="-1.000521"/>
      <trkpt lat="51.447032" lon="-1.000685"/>
      <trkpt lat="51.447023" lon="-1.000751"/>
      <trkpt lat="51.447001" lon="-1.000904"/>
      <trkpt lat="51.446944" lon="-1.001024"/>
      <trkpt lat="51.446929" lon="-1.001061"/>
      <trkpt lat="51.446901" lon="-1.001239"/>
      <trkpt lat="51.446790" lon="-1.001825"/>
      <trkpt lat="51.446764" lon="-1.001960"/>
      <trkpt lat="51.446728" lon="-1.002151"/>
      <trkpt lat="51.446685" lon="-1.002333"/>
      <trkpt lat="51.446655" lon="-1.002460"/>
      <trkpt lat="51.446611" lon="-1.002836"/>
      <trkpt lat="51.446525" lon="-1.003223"/>
      <trkpt lat="51.446364" lon="-1.003870"/>
      <trkpt lat="51.446339" lon="-1.003970"/>
      <trkpt lat="51.446172" lon="-1.004649"/>
      <trkpt lat="51.446083" lon="-1.005016"/>
      <trkpt lat="51.446055" lon="-1.005162"/>
      <trkpt lat="51.446030" lon="-1.005323"/>
      <trkpt lat="51.445996" lon="-1.005567"/>
      <trkpt lat="51.445975" lon="-1.005787"/>
      <trkpt lat="51.445958" lon="-1.006013"/>
      <trkpt lat="51.445932" lon="-1.006409"/>
      <trkpt lat="51.445915" lon="-1.006589"/>
      <trkpt lat="51.445882" lon="-1.007022"/>
      <trkpt lat="51.445847" lon="-1.007546"/>
      <trkpt lat="51.445829" lon="-1.007767"/>
      <trkpt lat="51.445816" lon="-1.007927"/>
      <trkpt lat="51.445811" lon="-1.007993"/>
      <trkpt lat="51.445803" lon="-1.008080"/>
      <trkpt lat="51.445751" lon="-1.008789"/>
      <trkpt lat="51.445746" lon="-1.008907"/>
      <trkpt lat="51.445738" lon="-1.009034"/>
      <trkpt lat="51.445712" lon="-1.009169"/>
      <trkpt lat="51.445715" lon="-1.009318"/>
      <trkpt lat="51.445711" lon="-1.009538"/>
      <trkpt lat="51.445707" lon="-1.009973"/>
      <trkpt lat="51.445716" lon="-1.010319"/>
      <trkpt lat="51.445727" lon="-1.010607"/>
      <trkpt lat="51.445731" lon="-1.010731"/>
      <trkpt lat="51.445736" lon="-1.011105"/>
      <trkpt lat="51.445733" lon="-1.011322"/>
      <trkpt lat="51.445729" lon="-1.011501"/>
      <trkpt lat="51.445717" lon="-1.011673"/>
      <trkpt lat="51.445699" lon="-1.011851"/>
      <trkpt lat="51.445668" lon="-1.012062"/>
      <trkpt lat="51.445625" lon="-1.012304"/>
      <trkpt lat="51.445572" lon="-1.012536"/>
      <trkpt lat="51.445473" lon="-1.012906"/>
      <trkpt lat="51.445459" lon="-1.012968"/>
      <trkpt lat="51.445311" lon="-1.013539"/>
      <trkpt lat="51.445224" lon="-1.013863"/>
      <trkpt lat="51.445159" lon="-1.014102"/>
      <trkpt lat="51.445069" lon="-1.014499"/>
      <trkpt lat="51.445020" lon="-1.014686"/>
      <trkpt lat="51.444996" lon="-1.014859"/>
      <trkpt lat="51.444938" lon="-1.014989"/>
      <trkpt lat="51.444892" lon="-1.015132"/>
      <trkpt lat="51.444836" lon="-1.015386"/>
      <trkpt lat="51.444764" lon="-1.015704"/>
      <trkpt lat="51.444701" lon="-1.015992"/>
      <trkpt lat="51.444632" lon="-1.016321"/>
      <trkpt lat="51.444578" lon="-1.016599"/>
      <trkpt lat="51.444537" lon="-1.016814"/>
      <trkpt lat="51.444531" lon="-1.016854"/>
      <trkpt lat="51.444476" lon="-1.017186"/>
      <trkpt lat="51.444468" lon="-1.017236"/>
      <trkpt lat="51.444418" lon="-1.017539"/>
      <trkpt lat="51.444381" lon="-1.017766"/>
      <trkpt lat="51.444363" lon="-1.017939"/>
      <trkpt lat="51.444350" lon="-1.018056"/>
      <trkpt lat="51.444333" lon="-1.018197"/>
      <trkpt lat="51.444311" lon="-1.018377"/>
      <trkpt lat="51.444243" lon="-1.018854"/>
      <trkpt lat="51.444238" lon="-1.018894"/>
      <trkpt lat="51.444211" lon="-1.019093"/>
      <trkpt lat="51.444194" lon="-1.019221"/>
      <trkpt lat="51.444188" lon="-1.019317"/>
      <trkpt lat="51.444183" lon="-1.019472"/>
      <trkpt lat="51.444185" lon="-1.019543"/>
      <trkpt lat="51.444187" lon="-1.019636"/>
      <trkpt lat="51.444195" lon="-1.019831"/>
      <trkpt lat="51.444212" lon="-1.020090"/>
      <trkpt lat="51.444239" lon="-1.020423"/>
      <trkpt lat="51.444255" lon="-1.020637"/>
      <trkpt lat="51.444267" lon="-1.020805"/>
      <trkpt lat="51.444299" lon="-1.021113"/>
      <trkpt lat="51.444309" lon="-1.021206"/>
      <trkpt lat="51.444354" lon="-1.021721"/>
      <trkpt lat="51.444325" lon="-1.021903"/>
      <trkpt lat="51.444321" lon="-1.022040"/>
      <trkpt lat="51.444335" lon="-1.022249"/>
      <trkpt lat="51.444345" lon="-1.022484"/>
      <trkpt lat="51.444366" lon="-1.022834"/>
      <trkpt lat="51.444406" lon="-1.022966"/>
      <trkpt lat="51.444411" lon="-1.023226"/>
      <trkpt lat="51.444405" lon="-1.023403"/>
      <trkpt lat="51.444394" lon="-1.023562"/>
      <trkpt lat="51.444383" lon="-1.023676"/>
      <trkpt lat="51.444360" lon="-1.023871"/>
      <trkpt lat="51.444295" lon="-1.024283"/>
      <trkpt lat="51.444280" lon="-1.024384"/>
      <trkpt lat="51.444269" lon="-1.024453"/>
      <trkpt lat="51.444241" lon="-1.024636"/>
      <trkpt lat="51.444229" lon="-1.024720"/>
      <trkpt lat="51.444190" lon="-1.024980"/>
      <trkpt lat="51.444157" lon="-1.025240"/>
      <trkpt lat="51.444130" lon="-1.025477"/>
      <trkpt lat="51.444093" lon="-1.025857"/>
      <trkpt lat="51.444074" lon="-1.026027"/>
      <trkpt lat="51.444039" lon="-1.026399"/>
      <trkpt lat="51.444004" lon="-1.026728"/>
      <trkpt lat="51.443994" lon="-1.026813"/>
      <trkpt lat="51.443984" lon="-1.026891"/>
      <trkpt lat="51.443973" lon="-1.026985"/>
      <trkpt lat="51.443961" lon="-1.027069"/>
      <trkpt lat="51.443941" lon="-1.027200"/>
      <trkpt lat="51.443911" lon="-1.027363"/>
      <trkpt lat="51.443886" lon="-1.027508"/>
      <trkpt lat="51.443852" lon="-1.027669"/>
      <trkpt lat="51.443794" lon="-1.027919"/>
      <trkpt lat="51.443748" lon="-1.028103"/>
      <trkpt lat="51.443694" lon="-1.028318"/>
      <trkpt lat="51.443532" lon="-1.028946"/>
      <trkpt lat="51.443493" lon="-1.029139"/>
      <trkpt lat="51.443430" lon="-1.029492"/>
      <trkpt lat="51.443364" lon="-1.029958"/>
      <trkpt lat="51.443324" lon="-1.030290"/>
      <trkpt lat="51.443291" lon="-1.030639"/>
      <trkpt lat="51.443273" lon="-1.030875"/>
      <trkpt lat="51.443228" lon="-1.031088"/>
      <trkpt lat="51.443210" lon="-1.031267"/>
      <trkpt lat="51.443132" lon="-1.032136"/>
      <trkpt lat="51.443106" lon="-1.032369"/>
      <trkpt lat="51.443083" lon="-1.032626"/>
      <trkpt lat="51.443006" lon="-1.033439"/>
      <trkpt lat="51.442933" lon="-1.034157"/>
      <trkpt lat="51.442875" lon="-1.034712"/>
      <trkpt lat="51.442797" lon="-1.035510"/>
      <trkpt lat="51.442716" lon="-1.036346"/>
      <trkpt lat="51.442747" lon="-1.036575"/>
      <trkpt lat="51.442722" lon="-1.036931"/>
      <trkpt lat="51.442697" lon="-1.037204"/>
      <trkpt lat="51.442654" lon="-1.037754"/>
      <trkpt lat="51.442622" lon="-1.038156"/>
      <trkpt lat="51.442598" lon="-1.038458"/>
      <trkpt lat="51.442549" lon="-1.039143"/>
      <trkpt lat="51.442518" lon="-1.039537"/>
      <trkpt lat="51.442471" lon="-1.040205"/>
      <trkpt lat="51.442455" lon="-1.040662"/>
      <trkpt lat="51.442448" lon="-1.041266"/>
      <trkpt lat="51.442456" lon="-1.041911"/>
      <trkpt lat="51.442466" lon="-1.042482"/>
      <trkpt lat="51.442467" lon="-1.042525"/>
      <trkpt lat="51.442475" lon="-1.042916"/>
      <trkpt lat="51.442487" lon="-1.043353"/>
      <trkpt lat="51.442492" lon="-1.043600"/>
      <trkpt lat="51.442494" lon="-1.043780"/>
      <trkpt lat="51.442482" lon="-1.044253"/>
      <trkpt lat="51.442475" lon="-1.044466"/>
      <trkpt lat="51.442466" lon="-1.044610"/>
      <trkpt lat="51.442455" lon="-1.044786"/>
      <trkpt lat="51.442438" lon="-1.044944"/>
      <trkpt lat="51.442419" lon="-1.045084"/>
      <trkpt lat="51.442388" lon="-1.045256"/>
      <trkpt lat="51.442356" lon="-1.045417"/>
      <trkpt lat="51.442278" lon="-1.045709"/>
      <trkpt lat="51.442172" lon="-1.045851"/>
      <trkpt lat="51.442137" lon="-1.045943"/>
      <trkpt lat="51.442118" lon="-1.046010"/>
      <trkpt lat="51.442064" lon="-1.046205"/>
      <trkpt lat="51.442011" lon="-1.046403"/>
      <trkpt lat="51.441969" lon="-1.046560"/>
      <trkpt lat="51.441937" lon="-1.046699"/>
      <trkpt lat="51.441884" lon="-1.047102"/>
      <trkpt lat="51.441770" lon="-1.047395"/>
      <trkpt lat="51.441634" lon="-1.047704"/>
      <trkpt lat="51.441485" lon="-1.047993"/>
      <trkpt lat="51.441346" lon="-1.048311"/>
      <trkpt lat="51.441269" lon="-1.048507"/>
      <trkpt lat="51.441213" lon="-1.048665"/>
      <trkpt lat="51.441154" lon="-1.048853"/>
      <trkpt lat="51.441053" lon="-1.049214"/>
      <trkpt lat="51.440964" lon="-1.049587"/>
      <trkpt lat="51.440918" lon="-1.049850"/>
      <trkpt lat="51.440872" lon="-1.050120"/>
      <trkpt lat="51.440828" lon="-1.050555"/>
      <trkpt lat="51.440811" lon="-1.050760"/>
      <trkpt lat="51.440809" lon="-1.050860"/>
      <trkpt lat="51.440806" lon="-1.050958"/>
      <trkpt lat="51.440799" lon="-1.051236"/>
      <trkpt lat="51.440811" lon="-1.051518"/>
      <trkpt lat="51.440820" lon="-1.051728"/>
      <trkpt lat="51.440859" lon="-1.052148"/>
      <trkpt lat="51.440912" lon="-1.052536"/>
      <trkpt lat="51.440944" lon="-1.052935"/>
      <trkpt lat="51.440953" lon="-1.053402"/>
      <trkpt lat="51.440945" lon="-1.053702"/>
      <trkpt lat="51.440932" lon="-1.054034"/>
      <trkpt lat="51.440916" lon="-1.054320"/>
      <trkpt lat="51.440881" lon="-1.054649"/>
      <trkpt lat="51.440814" lon="-1.055025"/>
      <trkpt lat="51.440723" lon="-1.055214"/>
      <trkpt lat="51.440697" lon="-1.055279"/>
      <trkpt lat="51.440652" lon="-1.055393"/>
      <trkpt lat="51.440615" lon="-1.055515"/>
      <trkpt lat="51.440590" lon="-1.055539"/>
      <trkpt lat="51.440565" lon="-1.055590"/>
      <trkpt lat="51.440552" lon="-1.055616"/>
      <trkpt lat="51.440533" lon="-1.055712"/>
      <trkpt lat="51.440541" lon="-1.055829"/>
      <trkpt lat="51.440551" lon="-1.055862"/>
      <trkpt lat="51.440560" lon="-1.055891"/>
      <trkpt lat="51.440608" lon="-1.055968"/>
      <trkpt lat="51.440645" lon="-1.055997"/>
      <trkpt lat="51.440689" lon="-1.056132"/>
      <trkpt lat="51.440758" lon="-1.056270"/>
      <trkpt lat="51.440858" lon="-1.056536"/>
      <trkpt lat="51.440870" lon="-1.056577"/>
      <trkpt lat="51.440896" lon="-1.056651"/>
      <trkpt lat="51.440977" lon="-1.056779"/>
      <trkpt lat="51.441009" lon="-1.057041"/>
      <trkpt lat="51.441056" lon="-1.057438"/>
      <trkpt lat="51.441082" lon="-1.057839"/>
      <trkpt lat="51.441090" lon="-1.058237"/>
      <trkpt lat="51.441080" lon="-1.058530"/>
      <trkpt lat="51.441020" lon="-1.058791"/>
      <trkpt lat="51.441017" lon="-1.058931"/>
      <trkpt lat="51.440988" lon="-1.059539"/>
      <trkpt lat="51.440961" lon="-1.059962"/>
      <trkpt lat="51.440927" lon="-1.060332"/>
      <trkpt lat="51.440909" lon="-1.060541"/>
      <trkpt lat="51.440903" lon="-1.060606"/>
      <trkpt lat="51.440891" lon="-1.060750"/>
      <trkpt lat="51.440878" lon="-1.060866"/>
      <trkpt lat="51.440846" lon="-1.061094"/>
      <trkpt lat="51.440808" lon="-1.061345"/>
      <trkpt lat="51.440742" lon="-1.061692"/>
      <trkpt lat="51.440658" lon="-1.062045"/>
      <trkpt lat="51.440515" lon="-1.062502"/>
      <trkpt lat="51.440397" lon="-1.062837"/>
      <trkpt lat="51.440276" lon="-1.063179"/>
      <trkpt lat="51.440130" lon="-1.063574"/>
      <trkpt lat="51.440029" lon="-1.063838"/>
      <trkpt lat="51.439932" lon="-1.064074"/>
      <trkpt lat="51.439878" lon="-1.064189"/>
      <trkpt lat="51.439821" lon="-1.064266"/>
      <trkpt lat="51.439770" lon="-1.064319"/>
      <trkpt lat="51.439723" lon="-1.064350"/>
      <trkpt lat="51.439693" lon="-1.064363"/>
      <trkpt lat="51.439487" lon="-1.064445"/>
      <trkpt lat="51.439410" lon="-1.064415"/>
      <trkpt lat="51.439347" lon="-1.064405"/>
      <trkpt lat="51.439284" lon="-1.064394"/>
      <trkpt lat="51.439236" lon="-1.064409"/>
      <trkpt lat="51.439179" lon="-1.064434"/>
      <trkpt lat="51.439116" lon="-1.064466"/>
      <trkpt lat="51.439053" lon="-1.064515"/>
      <trkpt lat="51.439017" lon="-1.064549"/>
      <trkpt lat="51.438977" lon="-1.064598"/>
      <trkpt lat="51.438491" lon="-1.065268"/>
      <trkpt lat="51.438439" lon="-1.065356"/>
      <trkpt lat="51.438408" lon="-1.065417"/>
      <trkpt lat="51.438379" lon="-1.065488"/>
      <trkpt lat="51.438354" lon="-1.065573"/>
      <trkpt lat="51.438320" lon="-1.065700"/>
      <trkpt lat="51.438314" lon="-1.065785"/>
      <trkpt lat="51.438313" lon="-1.065883"/>
      <trkpt lat="51.438326" lon="-1.065995"/>
      <trkpt lat="51.438345" lon="-1.066107"/>
      <trkpt lat="51.438369" lon="-1.066215"/>
      <trkpt lat="51.438396" lon="-1.066312"/>
      <trkpt lat="51.438431" lon="-1.066404"/>
      <trkpt lat="51.438457" lon="-1.066458"/>
      <trkpt lat="51.438489" lon="-1.066513"/>
      <trkpt lat="51.438541" lon="-1.066583"/>
      <trkpt lat="51.438602" lon="-1.066643"/>
      <trkpt lat="51.438683" lon="-1.066703"/>
      <trkpt lat="51.438776" lon="-1.066764"/>
      <trkpt lat="51.438812" lon="-1.066772"/>
      <trkpt lat="51.438852" lon="-1.066773"/>
      <trkpt lat="51.438900" lon="-1.066770"/>
      <trkpt lat="51.439035" lon="-1.066810"/>
      <trkpt lat="51.439067" lon="-1.066820"/>
      <trkpt lat="51.439132" lon="-1.066839"/>
      <trkpt lat="51.439174" lon="-1.066859"/>
      <trkpt lat="51.439235" lon="-1.066902"/>
      <trkpt lat="51.439294" lon="-1.066962"/>
      <trkpt lat="51.439379" lon="-1.067058"/>
      <trkpt lat="51.439540" lon="-1.067261"/>
      <trkpt lat="51.439962" lon="-1.067791"/>
      <trkpt lat="51.440149" lon="-1.068026"/>
      <trkpt lat="51.440377" lon="-1.068310"/>
      <trkpt lat="51.440724" lon="-1.068738"/>
      <trkpt lat="51.441084" lon="-1.069177"/>
      <trkpt lat="51.441504" lon="-1.069668"/>
      <trkpt lat="51.441642" lon="-1.069820"/>
      <trkpt lat="51.441977" lon="-1.070191"/>
      <trkpt lat="51.442197" lon="-1.070394"/>
      <trkpt lat="51.442563" lon="-1.070681"/>
      <trkpt lat="51.443188" lon="-1.071299"/>
      <trkpt lat="51.443668" lon="-1.071753"/>
      <trkpt lat="51.444786" lon="-1.072662"/>
      <trkpt lat="51.445509" lon="-1.073169"/>
      <trkpt lat="51.446130" lon="-1.073566"/>
      <trkpt lat="51.447555" lon="-1.074462"/>
      <trkpt lat="51.447862" lon="-1.074651"/>
      <trkpt lat="51.448426" lon="-1.075050"/>
      <trkpt lat="51.449379" lon="-1.075806"/>
      <trkpt lat="51.450114" lon="-1.076488"/>
      <trkpt lat="51.450534" lon="-1.076924"/>
      <trkpt lat="51.451087" lon="-1.077504"/>
      <trkpt lat="51.451627" lon="-1.078187"/>
      <trkpt lat="51.451963" lon="-1.078610"/>
      <trkpt lat="51.452459" lon="-1.079315"/>
      <trkpt lat="51.452928" lon="-1.080029"/>
      <trkpt lat="51.453416" lon="-1.080862"/>
      <trkpt lat="51.453993" lon="-1.081898"/>
      <trkpt lat="51.454566" lon="-1.083033"/>
      <trkpt lat="51.455454" lon="-1.085223"/>
      <trkpt lat="51.456365" lon="-1.087653"/>
      <trkpt lat="51.457427" lon="-1.091015"/>
      <trkpt lat="51.458302" lon="-1.094312"/>
      <trkpt lat="51.458956" lon="-1.097870"/>
      <trkpt lat="51.459522" lon="-1.101514"/>
      <trkpt lat="51.460003" lon="-1.106484"/>
      <trkpt lat="51.460145" lon="-1.110822"/>
      <trkpt lat="51.460133" lon="-1.112820"/>
      <trkpt lat="51.460059" lon="-1.114973"/>
      <trkpt lat="51.459924" lon="-1.117080"/>
      <trkpt lat="51.459832" lon="-1.118123"/>
      <trkpt lat="51.459709" lon="-1.119367"/>
      <trkpt lat="51.459586" lon="-1.120529"/>
      <trkpt lat="51.459489" lon="-1.121677"/>
      <trkpt lat="51.459285" lon="-1.124430"/>
      <trkpt lat="51.459268" lon="-1.124843"/>
      <trkpt lat="51.459148" lon="-1.128208"/>
      <trkpt lat="51.459228" lon="-1.132070"/>
      <trkpt lat="51.459498" lon="-1.135779"/>
      <trkpt lat="51.459937" lon="-1.139425"/>
      <trkpt lat="51.460326" lon="-1.142876"/>
      <trkpt lat="51.460371" lon="-1.143274"/>
      <trkpt lat="51.460450" lon="-1.143977"/>
      <trkpt lat="51.460654" lon="-1.147119"/>
      <trkpt lat="51.460739" lon="-1.150588"/>
      <trkpt lat="51.460568" lon="-1.155116"/>
      <trkpt lat="51.460253" lon="-1.159462"/>
      <trkpt lat="51.460157" lon="-1.162942"/>
      <trkpt lat="51.460312" lon="-1.168771"/>
      <trkpt lat="51.460404" lon="-1.174599"/>
      <trkpt lat="51.460238" lon="-1.178500"/>
      <trkpt lat="51.459982" lon="-1.181866"/>
      <trkpt lat="51.459655" lon="-1.184053"/>
      <trkpt lat="51.459620" lon="-1.184287"/>
      <trkpt lat="51.459326" lon="-1.186253"/>
      <trkpt lat="51.458731" lon="-1.189803"/>
      <trkpt lat="51.458550" lon="-1.191585"/>
      <trkpt lat="51.458461" lon="-1.193820"/>
      <trkpt lat="51.458440" lon="-1.195159"/>
      <trkpt lat="51.458470" lon="-1.196844"/>
      <trkpt lat="51.458622" lon="-1.198978"/>
      <trkpt lat="51.458934" lon="-1.201593"/>
      <trkpt lat="51.459656" lon="-1.204683"/>
      <trkpt lat="51.460298" lon="-1.206958"/>
      <trkpt lat="51.461019" lon="-1.209103"/>
      <trkpt lat="51.461621" lon="-1.211436"/>
      <trkpt lat="51.462160" lon="-1.214039"/>
      <trkpt lat="51.462508" lon="-1.216070"/>
      <trkpt lat="51.462769" lon="-1.218589"/>
      <trkpt lat="51.462990" lon="-1.221322"/>
      <trkpt lat="51.462963" lon="-1.225123"/>
      <trkpt lat="51.462936" lon="-1.225889"/>
      <trkpt lat="51.462882" lon="-1.227514"/>
      <trkpt lat="51.462731" lon="-1.231162"/>
      <trkpt lat="51.462667" lon="-1.236199"/>
      <trkpt lat="51.462665" lon="-1.240212"/>
      <trkpt lat="51.462731" lon="-1.244937"/>
      <trkpt lat="51.462897" lon="-1.248752"/>
      <trkpt lat="51.463237" lon="-1.253118"/>
      <trkpt lat="51.463709" lon="-1.256729"/>
      <trkpt lat="51.464479" lon="-1.260969"/>
      <trkpt lat="51.464925" lon="-1.263782"/>
      <trkpt lat="51.465118" lon="-1.265441"/>
      <trkpt lat="51.465168" lon="-1.266189"/>
      <trkpt lat="51.465222" lon="-1.268155"/>
      <trkpt lat="51.465140" lon="-1.270300"/>
      <trkpt lat="51.465006" lon="-1.271998"/>
      <trkpt lat="51.464852" lon="-1.273255"/>
      <trkpt lat="51.464693" lon="-1.274247"/>
      <trkpt lat="51.464201" lon="-1.276695"/>
      <trkpt lat="51.463712" lon="-1.278485"/>
      <trkpt lat="51.462998" lon="-1.280600"/>
      <trkpt lat="51.462135" lon="-1.282438"/>
      <trkpt lat="51.461012" lon="-1.284494"/>
      <trkpt lat="51.459309" lon="-1.287202"/>
      <trkpt lat="51.458098" lon="-1.289331"/>
      <trkpt lat="51.457306" lon="-1.290949"/>
      <trkpt lat="51.456320" lon="-1.293183"/>
      <trkpt lat="51.455472" lon="-1.295441"/>
      <trkpt lat="51.454691" lon="-1.297916"/>
      <trkpt lat="51.454213" lon="-1.299713"/>
      <trkpt lat="51.454145" lon="-1.300002"/>
      <trkpt lat="51.453983" lon="-1.300489"/>
      <trkpt lat="51.453820" lon="-1.301061"/>
      <trkpt lat="51.453589" lon="-1.301982"/>
      <trkpt lat="51.453430" lon="-1.302647"/>
      <trkpt lat="51.453222" lon="-1.303617"/>
      <trkpt lat="51.453057" lon="-1.304491"/>
      <trkpt lat="51.452820" lon="-1.305848"/>
      <trkpt lat="51.452658" lon="-1.306931"/>
      <trkpt lat="51.452598" lon="-1.307442"/>
      <trkpt lat="51.452548" lon="-1.307809"/>
      <trkpt lat="51.452493" lon="-1.308222"/>
      <trkpt lat="51.452467" lon="-1.308387"/>
      <trkpt lat="51.452451" lon="-1.308475"/>
      <trkpt lat="51.452428" lon="-1.308574"/>
      <trkpt lat="51.452396" lon="-1.308679"/>
      <trkpt lat="51.452367" lon="-1.308764"/>
      <trkpt lat="51.452348" lon="-1.308814"/>
      <trkpt lat="51.452215" lon="-1.309083"/>
      <trkpt lat="51.452116" lon="-1.309202"/>
      <trkpt lat="51.452006" lon="-1.309367"/>
      <trkpt lat="51.451887" lon="-1.309469"/>
      <trkpt lat="51.451774" lon="-1.309607"/>
      <trkpt lat="51.451700" lon="-1.309687"/>
      <trkpt lat="51.451530" lon="-1.309815"/>
      <trkpt lat="51.451410" lon="-1.309903"/>
      <trkpt lat="51.450997" lon="-1.310232"/>
      <trkpt lat="51.450796" lon="-1.310439"/>
      <trkpt lat="51.450680" lon="-1.310562"/>
      <trkpt lat="51.450604" lon="-1.310644"/>
      <trkpt lat="51.450518" lon="-1.310739"/>
      <trkpt lat="51.450400" lon="-1.310887"/>
      <trkpt lat="51.450305" lon="-1.311025"/>
      <trkpt lat="51.450222" lon="-1.311150"/>
      <trkpt lat="51.450133" lon="-1.311290"/>
      <trkpt lat="51.450049" lon="-1.311444"/>
      <trkpt lat="51.449972" lon="-1.311595"/>
      <trkpt lat="51.449913" lon="-1.311710"/>
      <trkpt lat="51.449804" lon="-1.311946"/>
      <trkpt lat="51.449654" lon="-1.312257"/>
      <trkpt lat="51.449590" lon="-1.312390"/>
      <trkpt lat="51.449490" lon="-1.312583"/>
      <trkpt lat="51.449414" lon="-1.312722"/>
      <trkpt lat="51.449310" lon="-1.312900"/>
      <trkpt lat="51.449246" lon="-1.313009"/>
      <trkpt lat="51.449134" lon="-1.313186"/>
      <trkpt lat="51.449076" lon="-1.313272"/>
      <trkpt lat="51.449009" lon="-1.313363"/>
      <trkpt lat="51.448905" lon="-1.313504"/>
      <trkpt lat="51.448788" lon="-1.313641"/>
      <trkpt lat="51.448684" lon="-1.313748"/>
      <trkpt lat="51.448559" lon="-1.313860"/>
      <trkpt lat="51.448431" lon="-1.313964"/>
      <trkpt lat="51.448224" lon="-1.314117"/>
      <trkpt lat="51.447938" lon="-1.314316"/>
      <trkpt lat="51.447622" lon="-1.314529"/>
      <trkpt lat="51.447253" lon="-1.314767"/>
      <trkpt lat="51.446627" lon="-1.315165"/>
      <trkpt lat="51.445891" lon="-1.315652"/>
      <trkpt lat="51.445712" lon="-1.315780"/>
      <trkpt lat="51.445496" lon="-1.315933"/>
      <trkpt lat="51.445257" lon="-1.316111"/>
      <trkpt lat="51.445040" lon="-1.316281"/>
      <trkpt lat="51.444720" lon="-1.316523"/>
      <trkpt lat="51.444496" lon="-1.316685"/>
      <trkpt lat="51.444155" lon="-1.317001"/>
      <trkpt lat="51.443845" lon="-1.317223"/>
      <trkpt lat="51.443531" lon="-1.317450"/>
      <trkpt lat="51.443427" lon="-1.317529"/>
      <trkpt lat="51.443059" lon="-1.317791"/>
      <trkpt lat="51.442783" lon="-1.317982"/>
      <trkpt lat="51.442498" lon="-1.318168"/>
      <trkpt lat="51.442310" lon="-1.318292"/>
      <trkpt lat="51.441988" lon="-1.318497"/>
      <trkpt lat="51.441803" lon="-1.318611"/>
      <trkpt lat="51.441468" lon="-1.318808"/>
      <trkpt lat="51.441057" lon="-1.319044"/>
      <trkpt lat="51.440817" lon="-1.319173"/>
      <trkpt lat="51.440543" lon="-1.319319"/>
      <trkpt lat="51.440333" lon="-1.319419"/>
      <trkpt lat="51.439766" lon="-1.319684"/>
      <trkpt lat="51.439015" lon="-1.319994"/>
      <trkpt lat="51.438552" lon="-1.320161"/>
      <trkpt lat="51.438138" lon="-1.320306"/>
      <trkpt lat="51.437805" lon="-1.320436"/>
      <trkpt lat="51.437453" lon="-1.320581"/>
      <trkpt lat="51.437118" lon="-1.320738"/>
      <trkpt lat="51.436764" lon="-1.320874"/>
      <trkpt lat="51.436531" lon="-1.321005"/>
      <trkpt lat="51.435993" lon="-1.321347"/>
      <trkpt lat="51.435476" lon="-1.321727"/>
      <trkpt lat="51.435223" lon="-1.321924"/>
      <trkpt lat="51.434684" lon="-1.322330"/>
      <trkpt lat="51.434325" lon="-1.322578"/>
      <trkpt lat="51.433960" lon="-1.322803"/>
      <trkpt lat="51.433756" lon="-1.322925"/>
      <trkpt lat="51.433345" lon="-1.323127"/>
      <trkpt lat="51.432856" lon="-1.323333"/>
      <trkpt lat="51.432631" lon="-1.323403"/>
      <trkpt lat="51.432388" lon="-1.323476"/>
      <trkpt lat="51.432160" lon="-1.323541"/>
      <trkpt lat="51.431762" lon="-1.323630"/>
      <trkpt lat="51.431053" lon="-1.323776"/>
      <trkpt lat="51.430374" lon="-1.323896"/>
      <trkpt lat="51.429774" lon="-1.323989"/>
      <trkpt lat="51.429323" lon="-1.324032"/>
      <trkpt lat="51.428928" lon="-1.324069"/>
      <trkpt lat="51.428505" lon="-1.324105"/>
      <trkpt lat="51.428083" lon="-1.324134"/>
      <trkpt lat="51.427207" lon="-1.324147"/>
      <trkpt lat="51.426640" lon="-1.324148"/>
      <trkpt lat="51.426070" lon="-1.324134"/>
      <trkpt lat="51.425757" lon="-1.324132"/>
      <trkpt lat="51.425061" lon="-1.324120"/>
      <trkpt lat="51.424474" lon="-1.324108"/>
      <trkpt lat="51.423725" lon="-1.324076"/>
      <trkpt lat="51.423164" lon="-1.324042"/>
      <trkpt lat="51.422381" lon="-1.323994"/>
      <trkpt lat="51.421879" lon="-1.323952"/>
      <trkpt lat="51.421214" lon="-1.323864"/>
      <trkpt lat="51.420586" lon="-1.323770"/>
      <trkpt lat="51.419988" lon="-1.323657"/>
      <trkpt lat="51.419539" lon="-1.323562"/>
      <trkpt lat="51.419088" lon="-1.323447"/>
      <trkpt lat="51.418856" lon="-1.323404"/>
      <trkpt lat="51.418006" lon="-1.323171"/>
      <trkpt lat="51.417736" lon="-1.323098"/>
      <trkpt lat="51.417658" lon="-1.323071"/>
      <trkpt lat="51.417609" lon="-1.323030"/>
      <trkpt lat="51.417558" lon="-1.322963"/>
      <trkpt lat="51.417513" lon="-1.322888"/>
      <trkpt lat="51.417489" lon="-1.322817"/>
      <trkpt lat="51.417457" lon="-1.322755"/>
      <trkpt lat="51.417422" lon="-1.322707"/>
      <trkpt lat="51.417382" lon="-1.322671"/>
      <trkpt lat="51.417338" lon="-1.322647"/>
      <trkpt lat="51.417292" lon="-1.322636"/>
      <trkpt lat="51.417246" lon="-1.322639"/>
      <trkpt lat="51.417201" lon="-1.322655"/>
      <trkpt lat="51.417168" lon="-1.322676"/>
      <trkpt lat="51.417138" lon="-1.322704"/>
      <trkpt lat="51.417024" lon="-1.322768"/>
      <trkpt lat="51.416924" lon="-1.322780"/>
      <trkpt lat="51.416846" lon="-1.322767"/>
      <trkpt lat="51.416756" lon="-1.322747"/>
      <trkpt lat="51.416439" lon="-1.322673"/>
      <trkpt lat="51.416292" lon="-1.322626"/>
      <trkpt lat="51.416094" lon="-1.322561"/>
      <trkpt lat="51.415645" lon="-1.322396"/>
      <trkpt lat="51.415095" lon="-1.322184"/>
      <trkpt lat="51.414747" lon="-1.322046"/>
      <trkpt lat="51.414554" lon="-1.321971"/>
      <trkpt lat="51.414368" lon="-1.321895"/>
      <trkpt lat="51.414064" lon="-1.321767"/>
      <trkpt lat="51.413726" lon="-1.321615"/>
      <trkpt lat="51.413299" lon="-1.321425"/>
      <trkpt lat="51.413029" lon="-1.321297"/>
      <trkpt lat="51.412719" lon="-1.321150"/>
      <trkpt lat="51.412397" lon="-1.320982"/>
      <trkpt lat="51.412192" lon="-1.320871"/>
      <trkpt lat="51.412034" lon="-1.320779"/>
      <trkpt lat="51.411799" lon="-1.320638"/>
      <trkpt lat="51.411614" lon="-1.320516"/>
      <trkpt lat="51.411483" lon="-1.320415"/>
      <trkpt lat="51.411244" lon="-1.320247"/>
      <trkpt lat="51.411065" lon="-1.320111"/>
      <trkpt lat="51.410862" lon="-1.319947"/>
      <trkpt lat="51.410316" lon="-1.319480"/>
      <trkpt lat="51.409874" lon="-1.319109"/>
      <trkpt lat="51.409724" lon="-1.318988"/>
      <trkpt lat="51.409428" lon="-1.318754"/>
      <trkpt lat="51.409273" lon="-1.318638"/>
      <trkpt lat="51.409074" lon="-1.318491"/>
      <trkpt lat="51.408943" lon="-1.318386"/>
      <trkpt lat="51.408797" lon="-1.318290"/>
      <trkpt lat="51.408661" lon="-1.318210"/>
      <trkpt lat="51.408418" lon="-1.318092"/>
      <trkpt lat="51.408206" lon="-1.317995"/>
      <trkpt lat="51.407957" lon="-1.317898"/>
      <trkpt lat="51.407620" lon="-1.317769"/>
      <trkpt lat="51.407527" lon="-1.317730"/>
      <trkpt lat="51.407445" lon="-1.317689"/>
      <trkpt lat="51.407337" lon="-1.317647"/>
      <trkpt lat="51.407264" lon="-1.317612"/>
      <trkpt lat="51.407220" lon="-1.317585"/>
      <trkpt lat="51.407181" lon="-1.317549"/>
      <trkpt lat="51.407128" lon="-1.317479"/>
      <trkpt lat="51.407094" lon="-1.317414"/>
      <trkpt lat="51.407069" lon="-1.317357"/>
      <trkpt lat="51.407054" lon="-1.317316"/>
      <trkpt lat="51.407002" lon="-1.317219"/>
      <trkpt lat="51.406971" lon="-1.317169"/>
      <trkpt lat="51.406937" lon="-1.317119"/>
      <trkpt lat="51.406898" lon="-1.317076"/>
      <trkpt lat="51.406877" lon="-1.317054"/>
      <trkpt lat="51.406840" lon="-1.317023"/>
      <trkpt lat="51.406768" lon="-1.316991"/>
      <trkpt lat="51.406737" lon="-1.316983"/>
      <trkpt lat="51.406721" lon="-1.316980"/>
      <trkpt lat="51.406695" lon="-1.316976"/>
      <trkpt lat="51.406663" lon="-1.316989"/>
      <trkpt lat="51.406634" lon="-1.317002"/>
      <trkpt lat="51.406600" lon="-1.317019"/>
      <trkpt lat="51.406552" lon="-1.317047"/>
      <trkpt lat="51.406484" lon="-1.317101"/>
      <trkpt lat="51.406392" lon="-1.317155"/>
      <trkpt lat="51.406322" lon="-1.317197"/>
      <trkpt lat="51.406229" lon="-1.317238"/>
      <trkpt lat="51.406159" lon="-1.317262"/>
      <trkpt lat="51.406056" lon="-1.317294"/>
      <trkpt lat="51.405906" lon="-1.317343"/>
      <trkpt lat="51.405847" lon="-1.317370"/>
      <trkpt lat="51.405017" lon="-1.317788"/>
      <trkpt lat="51.404795" lon="-1.317913"/>
      <trkpt lat="51.404753" lon="-1.317937"/>
      <trkpt lat="51.404596" lon="-1.318032"/>
      <trkpt lat="51.404491" lon="-1.318098"/>
      <trkpt lat="51.404408" lon="-1.318146"/>
      <trkpt lat="51.403696" lon="-1.318630"/>
      <trkpt lat="51.403252" lon="-1.318924"/>
      <trkpt lat="51.403073" lon="-1.319039"/>
      <trkpt lat="51.402842" lon="-1.319195"/>
      <trkpt lat="51.402641" lon="-1.319331"/>
      <trkpt lat="51.402167" lon="-1.319654"/>
      <trkpt lat="51.402065" lon="-1.319723"/>
      <trkpt lat="51.401681" lon="-1.319930"/>
      <trkpt lat="51.401335" lon="-1.320095"/>
      <trkpt lat="51.401093" lon="-1.320186"/>
      <trkpt lat="51.400913" lon="-1.320267"/>
      <trkpt lat="51.400776" lon="-1.320318"/>
      <trkpt lat="51.400638" lon="-1.320367"/>
      <trkpt lat="51.400583" lon="-1.320385"/>
      <trkpt lat="51.400540" lon="-1.320391"/>
      <trkpt lat="51.400513" lon="-1.320389"/>
      <trkpt lat="51.400470" lon="-1.320373"/>
      <trkpt lat="51.400436" lon="-1.320341"/>
      <trkpt lat="51.400343" lon="-1.320273"/>
      <trkpt lat="51.400298" lon="-1.320253"/>
      <trkpt lat="51.400263" lon="-1.320245"/>
      <trkpt lat="51.400214" lon="-1.320241"/>
      <trkpt lat="51.400178" lon="-1.320243"/>
      <trkpt lat="51.400143" lon="-1.320249"/>
      <trkpt lat="51.400119" lon="-1.320260"/>
      <trkpt lat="51.400070" lon="-1.320283"/>
      <trkpt lat="51.400025" lon="-1.320315"/>
      <trkpt lat="51.399984" lon="-1.320345"/>
      <trkpt lat="51.399933" lon="-1.320386"/>
      <trkpt lat="51.399859" lon="-1.320436"/>
      <trkpt lat="51.399747" lon="-1.320498"/>
      <trkpt lat="51.399668" lon="-1.320534"/>
      <trkpt lat="51.399600" lon="-1.320566"/>
      <trkpt lat="51.399529" lon="-1.320590"/>
      <trkpt lat="51.399445" lon="-1.320606"/>
      <trkpt lat="51.399351" lon="-1.320620"/>
      <trkpt lat="51.399252" lon="-1.320714"/>
      <trkpt lat="51.398935" lon="-1.320741"/>
      <trkpt lat="51.398785" lon="-1.320675"/>
      <trkpt lat="51.398705" lon="-1.320713"/>
      <trkpt lat="51.398584" lon="-1.320719"/>
      <trkpt lat="51.398519" lon="-1.320720"/>
      <trkpt lat="51.398484" lon="-1.320739"/>
      <trkpt lat="51.398452" lon="-1.320806"/>
      <trkpt lat="51.398438" lon="-1.320951"/>
      <trkpt lat="51.398449" lon="-1.321021"/>
      <trkpt lat="51.398487" lon="-1.321121"/>
      <trkpt lat="51.398490" lon="-1.321206"/>
      <trkpt lat="51.398503" lon="-1.321267"/>
      <trkpt lat="51.398543" lon="-1.321332"/>
      <trkpt lat="51.398609" lon="-1.321406"/>
      <trkpt lat="51.398865" lon="-1.321646"/>
      <trkpt lat="51.398933" lon="-1.321716"/>
      <trkpt lat="51.399003" lon="-1.321810"/>
      <trkpt lat="51.399064" lon="-1.321892"/>
      <trkpt lat="51.399109" lon="-1.321952"/>
      <trkpt lat="51.399200" lon="-1.322071"/>
      <trkpt lat="51.399246" lon="-1.322141"/>
      <trkpt lat="51.399270" lon="-1.322189"/>
      <trkpt lat="51.399292" lon="-1.322239"/>
      <trkpt lat="51.399311" lon="-1.322305"/>
      <trkpt lat="51.399326" lon="-1.322379"/>
      <trkpt lat="51.399361" lon="-1.322377"/>
      <trkpt lat="51.399387" lon="-1.322381"/>
      <trkpt lat="51.399410" lon="-1.322389"/>
      <trkpt lat="51.399429" lon="-1.322398"/>
      <trkpt lat="51.399449" lon="-1.322412"/>
      <trkpt lat="51.399475" lon="-1.322439"/>
      <trkpt lat="51.399515" lon="-1.322487"/>
      <trkpt lat="51.399556" lon="-1.322539"/>
      <trkpt lat="51.399588" lon="-1.322576"/>
      <trkpt lat="51.399611" lon="-1.322604"/>
      <trkpt lat="51.399646" lon="-1.322645"/>
      <trkpt lat="51.399712" lon="-1.322715"/>
      <trkpt lat="51.399779" lon="-1.322788"/>
      <trkpt lat="51.399865" lon="-1.322871"/>
      <trkpt lat="51.399923" lon="-1.322917"/>
      <trkpt lat="51.399981" lon="-1.322958"/>
      <trkpt lat="51.400103" lon="-1.323036"/>
      <trkpt lat="51.400153" lon="-1.323057"/>
      <trkpt lat="51.400195" lon="-1.323067"/>
      <trkpt lat="51.400212" lon="-1.323068"/>
      <trkpt lat="51.400228" lon="-1.323066"/>
      <trkpt lat="51.400243" lon="-1.323059"/>
      <trkpt lat="51.400258" lon="-1.323050"/>
      <trkpt lat="51.400268" lon="-1.323039"/>
      <trkpt lat="51.400275" lon="-1.323028"/>
      <trkpt lat="51.400281" lon="-1.322993"/>
      <trkpt lat="51.400292" lon="-1.322886"/>
      <trkpt lat="51.400302" lon="-1.322782"/>
      <trkpt lat="51.400312" lon="-1.322663"/>
      <trkpt lat="51.400329" lon="-1.322493"/>
      <trkpt lat="51.400361" lon="-1.322184"/>
      <trkpt lat="51.400374" lon="-1.322063"/>
      <trkpt lat="51.400384" lon="-1.321963"/>
      <trkpt lat="51.400400" lon="-1.321827"/>
      <trkpt lat="51.400488" lon="-1.321845"/>
      <trkpt lat="51.400546" lon="-1.321851"/>
      <trkpt lat="51.400628" lon="-1.321853"/>
      <trkpt lat="51.400657" lon="-1.321849"/>
      <trkpt lat="51.400688" lon="-1.321842"/>
      <trkpt lat="51.400724" lon="-1.321818"/>
      <trkpt lat="51.400757" lon="-1.321795"/>
      <trkpt lat="51.400795" lon="-1.321755"/>
      <trkpt lat="51.400829" lon="-1.321710"/>
      <trkpt lat="51.400862" lon="-1.321654"/>
      <trkpt lat="51.400891" lon="-1.321582"/>
      <trkpt lat="51.400902" lon="-1.321551"/>
      <trkpt lat="51.400918" lon="-1.321499"/>
      <trkpt lat="51.400931" lon="-1.321428"/>
      <trkpt lat="51.400941" lon="-1.321363"/>
      <trkpt lat="51.400950" lon="-1.321277"/>
      <trkpt lat="51.400963" lon="-1.321177"/>
      <trkpt lat="51.400980" lon="-1.321140"/>
      <trkpt lat="51.401000" lon="-1.321104"/>
      <trkpt lat="51.401023" lon="-1.321079"/>
      <trkpt lat="51.401049" lon="-1.321060"/>
      <trkpt lat="51.401084" lon="-1.321048"/>
      <trkpt lat="51.401142" lon="-1.321044"/>
      <trkpt lat="51.401207" lon="-1.321043"/>
      <trkpt lat="51.401324" lon="-1.321047"/>
      <trkpt lat="51.401361" lon="-1.321051"/>
      <trkpt lat="51.401393" lon="-1.321060"/>
      <trkpt lat="51.401410" lon="-1.321067"/>
      <trkpt lat="51.401440" lon="-1.321090"/>
      <trkpt lat="51.401491" lon="-1.321149"/>
      <trkpt lat="51.401476" lon="-1.321305"/>
      <trkpt lat="51.401443" lon="-1.321606"/>
      <trkpt lat="51.401417" lon="-1.321855"/>
      <trkpt lat="51.401402" lon="-1.321956"/>
      <trkpt lat="51.401379" lon="-1.322112"/>
      <trkpt lat="51.401331" lon="-1.322370"/>
      <trkpt lat="51.401317" lon="-1.322443"/>
      <trkpt lat="51.401295" lon="-1.322557"/>
      <trkpt lat="51.401272" lon="-1.322704"/>
      <trkpt lat="51.401237" lon="-1.322956"/>
      <trkpt lat="51.401228" lon="-1.323065"/>
    </trkseg>
  </trk>
</gpx>
